BEIDOU-2 IGSO-5         
1 37948U 11073A   26183.72937883 -.00000128  00000+0  00000+0 0  9990
2 37948  47.6496 271.3544 0114527 222.0502 141.5350  1.00270596 53296
LUCH-5A                 
1 37951U 11074B   26186.52685935 -.00000040  00000+0  00000+0 0  9997
2 37951   8.7972  73.5399 0002631  49.0308 157.5704  1.00272663 53231
BEIDOU-2 G5             
1 38091U 12008A   26186.58821186  .00000069  00000+0  00000+0 0  9997
2 38091   3.6167  69.5870 0007531 274.4870 210.0166  1.00268338 52553
BEIDOU-2 M3             
1 38250U 12018A   26185.90831992 -.00000060  00000+0  00000+0 0  9998
2 38250  55.7414 304.2782 0020629 272.9261  86.8584  1.86230251 96271
BEIDOU-2 M4             
1 38251U 12018B   26182.08192837 -.00000069  00000+0  00000+0 0  9992
2 38251  55.6447 303.6195 0011579 274.1308  85.7452  1.86229794 96203
SES-5                   
1 38652U 12036A   26183.65487642  .00000044  00000+0  00000+0 0  9994
2 38652   0.0450 320.1883 0002267 138.1529  63.0821  1.00270830 44612
BEIDOU-2 M6             
1 38775U 12050B   26186.08726961 -.00000037  00000+0  00000+0 0  9999
2 38775  56.5596  62.3027 0013196   0.0067   0.0613  1.86230975 93644
GSAT-10                 
1 38779U 12051B   26186.59319403 -.00000151  00000+0  00000+0 0  9996
2 38779   0.0441 239.1830 0007922 215.0838 125.8673  1.00269728 50280
NAVSTAR 67 (USA 239)    
1 38833U 12053A   26186.26458101  .00000065  00000+0  00000+0 0  9995
2 38833  53.5886 142.8589 0181373  66.0506 295.8109  2.00567790 99801
GSAT0103 (GALILEO-FM3)  
1 38857U 12055A   26186.07331267  .00000001  00000+0  00000+0 0  9995
2 38857  55.8163 101.0549 0004125 308.6335  51.3483  1.70473389 85314
BEIDOU-2 G6             
1 38953U 12059A   26186.67052631 -.00000163  00000+0  00000+0 0  9997
2 38953   4.4655  73.3284 0009250 330.2205 205.4996  1.00269642 50091
LUCH-5B                 
1 38977U 12061A   26186.43089701 -.00000128  00000+0  00000+0 0  9999
2 38977  10.5207  49.6978 0003286 137.3938 235.2195  1.00272195 49790
COSMOS 2485 [GLONASS-M] 
1 39155U 13019A   26186.21113416 -.00000011  00000+0  00000+0 0  9990
2 39155  65.4295  72.9996 0022949 232.3284 127.5298  2.13103535102660
NAVSTAR 68 (USA 242)    
1 39166U 13023A   26186.13203941 -.00000011  00000+0  00000+0 0  9991
2 39166  54.4903 268.2422 0141416  51.0963 310.2244  2.00563419 96246
IRNSS-1A                
1 39199U 13034A   26185.73222284  .00000069  00000+0  00000+0 0  9997
2 39199  35.7585  63.6187 0017855 181.6681 356.1728  1.00280121 47541
NAVSTAR 69 (USA 248)    
1 39533U 14008A   26185.63523743  .00000067  00000+0  00000+0 0  9992
2 39533  53.6568 148.6082 0084194 231.4719 127.7443  2.00560936 90031
ASTRA 5B                
1 39617U 14011B   26183.85175605  .00000148  00000+0  00000+0 0  9991
2 39617   0.0771 302.4799 0002214 165.1332 143.4211  1.00274657 44823
COSMOS 2492 [GLONASS-M] 
1 39620U 14012A   26185.70073097 -.00000043  00000+0  00000+0 0  9999
2 39620  65.2863 313.3408 0010255 320.7541  39.1820  2.13103564 95618
IRNSS-1B                
1 39635U 14017A   26185.73213617  .00000137  00000+0  00000+0 0  9990
2 39635  28.8946 240.1001 0022943 195.0922 166.1625  1.00272447 44979
LUCH-5V                 
1 39727U 14023A   26186.68691587 -.00000256  00000+0  00000+0 0  9993
2 39727   5.1759  69.5609 0002690  61.6233 134.4978  1.00268671 44544
NAVSTAR 70 (USA 251)    
1 39741U 14026A   26185.91103503 -.00000069  00000+0  00000+0 0  9995
2 39741  56.4890 330.8280 0038108 326.0828  33.6762  2.00559746 88899
COSMOS 2500 [GLONASS-M] 
1 40001U 14032A   26185.87026603 -.00000043  00000+0  00000+0 0  9995
2 40001  65.2215 313.0807 0007883 187.8592 172.1398  2.13106188 93830
NAVSTAR 71 (USA 256)    
1 40105U 14045A   26185.50425068 -.00000009  00000+0  00000+0 0  9994
2 40105  55.3639  87.7751 0034058 118.3275 242.0574  2.00559608 86424
GSAT0201 (GALILEO 5)    
1 40128U 14050A   26184.04751290 -.00000030  00000+0  00000+0 0  9996
2 40128  48.8580 272.7857 1676668 180.0160 180.0435  1.85520088 78614
GSAT0202 (GALILEO 6)    
1 40129U 14050B   26185.91994091 -.00000030  00000+0  00000+0 0  9992
2 40129  48.8727 271.7944 1678331 180.8085 178.9440  1.85520567 80816
IRNSS-1C                
1 40269U 14061A   26186.30795644 -.00000151  00000+0  00000+0 0  9990
2 40269   6.5628  88.5856 0022119   4.4363  24.1363  1.00273902 42879
NAVSTAR 72 (USA 258)    
1 40294U 14068A   26183.37856302 -.00000059  00000+0  00000+0 0  9995
2 40294  56.9979  30.3698 0067370  71.1337 289.6561  2.00577219 85519
COSMOS 2501 [GLONASS-K] 
1 40315U 14075A   26186.13252193  .00000100  00000+0  00000+0 0  9998
2 40315  63.6179 189.7508 0022670 212.6637 147.2190  2.13101464 90239
NAVSTAR 73 (USA 260)    
1 40534U 15013A   26185.51364044  .00000078  00000+0  00000+0 0  9998
2 40534  53.1670 203.4610 0109991  40.2716 320.5801  2.00550348 82179
GSAT0203 (GALILEO 7)    
1 40544U 15017A   26184.63712330 -.00000075  00000+0  00000+0 0  9998
2 40544  56.7810 341.1480 0002385 260.5919  99.3760  1.70476291 69485
GSAT0204 (GALILEO 8)    
1 40545U 15017B   26185.47954683 -.00000073  00000+0  00000+0 0  9999
2 40545  56.7872 341.1436 0002451 236.0411 123.9323  1.70475782 32544
